NORAD_CAT_ID,OBJECT_NAME,OBJECT_TYPE,EPOCH,MEAN_MOTION,ECCENTRICITY,INCLINATION,RA_OF_ASC_NODE,ARG_OF_PERICENTER,MEAN_ANOMALY,BSTAR,MEAN_MOTION_DOT,MEAN_MOTION_DDOT,TLE_LINE0,TLE_LINE1,TLE_LINE2,SEMIMAJOR_AXIS,PERIOD,APOGEE,PERIGEE,DECAYED
52269.0,STARLINK-3791,PAYLOAD,2023-11-25 04:58:48,15.08860805,0.0001589,53.2165,259.7449,89.2765,270.8409,0.00099077,0.00015524,0.0,0 STARLINK-3791,1 52269U 22041J   23329.20750242  .00015524  00000-0  99077-3 0  9996,2 52269  53.2165 259.7449 0001589  89.2765 270.8409 15.08860805 88230,6917.817,95.436,540.781,538.583,0.0
52269.0,STARLINK-3791,PAYLOAD,2023-11-25 19:17:16,15.08856291,0.0002147,53.2164,257.0735,58.9473,301.1729,0.00065266,0.00010119,0.0,0 STARLINK-3791,1 52269U 22041J   23329.80366466  .00010119  00000-0  65266-3 0  9991,2 52269  53.2164 257.0735 0002147  58.9473 301.1729 15.08856291 88325,6917.831,95.437,541.181,538.21,0.0
52269.0,STARLINK-3791,PAYLOAD,2023-11-26 01:38:48,15.08875387,0.0002188,53.2164,255.8836,62.8526,297.2689,0.001257,0.00019793,0.0,0 STARLINK-3791,1 52269U 22041J   23330.06861893  .00019793  00000-0  12570-2 0  9991,2 52269  53.2164 255.8836 0002188  62.8526 297.2689 15.08875387 89587,6917.772,95.435,541.151,538.124,0.0
52269.0,STARLINK-3791,PAYLOAD,2023-11-26 22:18:50,15.08829346,0.0002085,53.2176,252.0107,127.0822,233.0361,0.00024725,3.648e-05,0.0,0 STARLINK-3791,1 52269U 22041J   23330.92974615  .00003648  00000-0  24725-3 0  9991,2 52269  53.2176 252.0107 0002085 127.0822 233.0361 15.08829346 88497,6917.913,95.438,541.22,538.336,0.0
52269.0,STARLINK-3791,PAYLOAD,2023-11-27 01:29:36,15.08821308,0.0002221,53.2176,251.4151,138.1625,221.9537,2.377e-05,9e-07,0.0,0 STARLINK-3791,1 52269U 22041J   23331.06222778  .00000090  00000-0  23770-4 0  9991,2 52269  53.2176 251.4151 0002221 138.1625 221.9537 15.08821308 89734,6917.938,95.439,541.339,538.266,0.0
52269.0,STARLINK-3791,PAYLOAD,2023-11-27 04:40:22,15.08821025,0.0002099,53.2179,250.8225,134.3864,225.7301,-0.00011602,-2.133e-05,0.0,0 STARLINK-3791,1 52269U 22041J   23331.19471039 -.00002133  00000-0 -11602-3 0  9993,2 52269  53.2179 250.8225 0002099 134.3864 225.7301 15.08821025 88532,6917.938,95.439,541.255,538.351,0.0
52269.0,STARLINK-3791,PAYLOAD,2023-11-27 22:09:37,15.08834141,0.0001646,53.2186,247.5569,84.9498,275.1682,0.00054616,8.413e-05,0.0,0 STARLINK-3791,1 52269U 22041J   23331.92335419  .00008413  00000-0  54616-3 0  9992,2 52269  53.2186 247.5569 0001646  84.9498 275.1682 15.08834141 88640,6917.898,95.438,540.902,538.625,0.0
52269.0,STARLINK-3791,PAYLOAD,2023-11-28 01:20:23,15.08848248,0.0001954,53.2186,246.9546,111.6601,248.4599,0.00084366,0.00013167,0.0,0 STARLINK-3791,1 52269U 22041J   23332.05583229  .00013167  00000-0  84366-3 0  9998,2 52269  53.2186 246.9546 0001954 111.6601 248.4599 15.08848248 89884,6917.855,95.437,541.072,538.368,0.0
52269.0,STARLINK-3791,PAYLOAD,2023-11-28 04:31:09,15.08864047,0.0001633,53.2173,246.3625,106.4146,253.7026,0.0013131,0.00020686,0.0,0 STARLINK-3791,1 52269U 22041J   23332.18830920  .00020686  00000-0  13131-2 0  9990,2 52269  53.2173 246.3625 0001633 106.4146 253.7026 15.08864047 89904,6917.807,95.436,540.802,538.542,0.0
52269.0,STARLINK-3791,PAYLOAD,2023-11-28 18:49:37,15.08853763,0.0001934,53.2183,243.6765,126.3501,233.767,0.00042672,6.512e-05,0.0,0 STARLINK-3791,1 52269U 22041J   23332.78446748  .00006512  00000-0  42672-3 0  9992,2 52269  53.2183 243.6765 0001934 126.3501 233.7670 15.08853763 89995,6917.838,95.437,541.041,538.365,0.0
52269.0,STARLINK-3791,PAYLOAD,2023-11-28 22:00:24,15.0885554,0.0002431,53.2178,243.084,130.4451,229.6753,0.00045624,6.983e-05,0.0,0 STARLINK-3791,1 52269U 22041J   23332.91694577  .00006983  00000-0  45624-3 0  9994,2 52269  53.2178 243.0840 0002431 130.4451 229.6753 15.08855540 88798,6917.833,95.437,541.38,538.016,0.0
52269.0,STARLINK-3791,PAYLOAD,2023-11-29 01:11:10,15.08854366,0.0001496,53.217,242.4897,92.6211,267.4953,0.00041736,6.363e-05,0.0,0 STARLINK-3791,1 52269U 22041J   23333.04942756  .00006363  00000-0  41736-3 0  9996,2 52269  53.2170 242.4897 0001496  92.6211 267.4953 15.08854366 88818,6917.836,95.437,540.736,538.667,0.0
52269.0,STARLINK-3791,PAYLOAD,2023-11-29 23:26:34,15.08844401,0.0001718,53.2171,238.3341,103.6284,256.49,0.00030073,4.502e-05,0.0,0 STARLINK-3791,1 52269U 22041J   23333.97678813  .00004502  00000-0  30073-3 0  9993,2 52269  53.2171 238.3341 0001718 103.6284 256.4900 15.08844401 90178,6917.867,95.437,540.92,538.543,0.0
52269.0,STARLINK-3791,PAYLOAD,2023-12-01 02:28:08,15.08841605,0.000153,53.2162,233.2755,96.1407,263.9759,0.00025826,3.825e-05,0.0,0 STARLINK-3791,1 52269U 22041J   23335.10287264  .00003825  00000-0  25826-3 0  9993,2 52269  53.2162 233.2755 0001530  96.1407 263.9759 15.08841605 90343,6917.875,95.437,540.799,538.682,0.0
52269.0,STARLINK-3791,PAYLOAD,2023-12-01 21:32:45,15.08856656,0.0001472,53.2159,229.706,93.9212,266.1949,0.00065213,0.00010111,0.0,0 STARLINK-3791,1 52269U 22041J   23335.89774954  .00010111  00000-0  65213-3 0  9996,2 52269  53.2159 229.7060 0001472  93.9212 266.1949 15.08856656 89247,6917.829,95.437,540.713,538.676,0.0
52269.0,STARLINK-3791,PAYLOAD,2023-12-02 00:43:31,15.08864511,0.0001912,53.2156,229.1185,69.4974,290.6223,0.0014374,0.00022678,0.0,0 STARLINK-3791,1 52269U 22041J   23336.03023065  .00022678  00000-0  14374-2 0  9995,2 52269  53.2156 229.1185 0001912  69.4974 290.6223 15.08864511 90482,6917.805,95.436,540.993,538.348,0.0
52269.0,STARLINK-3791,PAYLOAD,2023-12-02 21:23:32,15.08838914,0.0001634,53.2153,225.2525,118.0617,242.054,2.1682e-05,5.7e-07,0.0,0 STARLINK-3791,1 52269U 22041J   23336.89135025  .00000057  00000-0  21682-4 0  9998,2 52269  53.2153 225.2525 0001634 118.0617 242.0540 15.08838914 89399,6917.884,95.438,540.879,538.618,0.0
52269.0,STARLINK-3791,PAYLOAD,2023-12-03 02:09:42,15.08832938,0.0001552,53.2154,224.3632,114.7363,245.3791,9.823e-06,-1.32e-06,0.0,0 STARLINK-3791,1 52269U 22041J   23337.09007283 -.00000132  00000-0  98230-5 0  9994,2 52269  53.2154 224.3632 0001552 114.7363 245.3791 15.08832938 90643,6917.902,95.438,540.841,538.693,0.0
52269.0,STARLINK-3791,PAYLOAD,2023-12-04 02:00:30,15.08835137,0.0001596,53.2164,219.8963,100.773,259.3442,1.2917e-05,-8.2e-07,0.0,0 STARLINK-3791,1 52269U 22041J   23338.08368081 -.00000082  00000-0  12917-4 0  9991,2 52269  53.2164 219.8963 0001596 100.7730 259.3442 15.08835137 89573,6917.895,95.438,540.864,538.656,0.0
52269.0,STARLINK-3791,PAYLOAD,2023-12-04 16:18:58,15.08839336,0.0001555,53.2159,217.2201,92.8429,267.2741,0.00033281,5.013e-05,0.0,0 STARLINK-3791,1 52269U 22041J   23338.67984328  .00005013  00000-0  33281-3 0  9998,2 52269  53.2159 217.2201 0001555  92.8429 267.2741 15.08839336 90886,6917.882,95.438,540.823,538.672,0.0
52269.0,STARLINK-3791,PAYLOAD,2023-12-05 01:51:16,15.08846794,0.0001545,53.2158,215.4358,93.3624,266.7545,0.00036421,5.514e-05,0.0,0 STARLINK-3791,1 52269U 22041J   23339.07727868  .00005514  00000-0  36421-3 0  9992,2 52269  53.2158 215.4358 0001545  93.3624 266.7545 15.08846794 89723,6917.86,95.437,540.793,538.656,0.0
52269.0,STARLINK-3791,PAYLOAD,2023-12-07 14:15:56,15.08836793,0.0001545,53.2155,204.136,92.3745,267.7424,-4.029e-05,-9.29e-06,0.0,0 STARLINK-3791,1 52269U 22041J   23341.59440034 -.00000929  00000-0 -40290-4 0  9996,2 52269  53.2155 204.1360 0001545  92.3745 267.7424 15.08836793 90100,6917.89,95.438,540.824,538.686,0.0
52269.0,STARLINK-3791,PAYLOAD,2023-12-07 15:51:19,15.08837712,0.0001594,53.2156,203.8396,89.8125,270.305,-2.9394e-05,-7.56e-06,0.0,0 STARLINK-3791,1 52269U 22041J   23341.66063988 -.00000756  00000-0 -29394-4 0  9993,2 52269  53.2156 203.8396 0001594  89.8125 270.3050 15.08837712 91336,6917.887,95.438,540.855,538.65,0.0
52269.0,STARLINK-3791,PAYLOAD,2023-12-09 17:08:16,15.08843166,0.0002078,53.2145,194.62,103.5435,256.5789,5.3088e-05,5.57e-06,0.0,0 STARLINK-3791,1 52269U 22041J   23343.71407995  .00000557  00000-0  53088-4 0  9995,2 52269  53.2145 194.6200 0002078 103.5435 256.5789 15.08843166 91640,6917.871,95.437,541.173,538.298,0.0
52269.0,STARLINK-3791,PAYLOAD,2023-12-09 23:29:49,15.08841481,0.0001648,53.2157,193.4321,97.2638,262.8541,8.6978e-05,1.097e-05,0.0,0 STARLINK-3791,1 52269U 22041J   23343.97904139  .00001097  00000-0  86978-4 0  9999,2 52269  53.2157 193.4321 0001648  97.2638 262.8541 15.08841481 90463,6917.876,95.437,540.881,538.601,0.0
52269.0,STARLINK-3791,PAYLOAD,2023-12-10 20:09:49,15.08841161,0.0001689,53.2171,189.5625,106.8469,253.2709,6.1039e-05,6.84e-06,0.0,0 STARLINK-3791,1 52269U 22041J   23344.84016174  .00000684  00000-0  61039-4 0  9991,2 52269  53.2171 189.5625 0001689 106.8469 253.2709 15.08841161 91811,6917.877,95.437,540.91,538.573,0.0
52269.0,STARLINK-3791,PAYLOAD,2023-12-11 18:25:13,15.08844851,0.0001734,53.2174,185.3978,114.6917,245.4256,7.9728e-05,9.81e-06,0.0,0 STARLINK-3791,1 52269U 22041J   23345.76751682  .00000981  00000-0  79728-4 0  9997,2 52269  53.2174 185.3978 0001734 114.6917 245.4256 15.08844851 90734,6917.866,95.437,540.93,538.531,0.0
52269.0,STARLINK-3791,PAYLOAD,2023-12-12 18:16:00,15.08841451,0.0001488,53.2168,180.9392,95.889,264.2272,3.1975e-05,2.21e-06,0.0,0 STARLINK-3791,1 52269U 22041J   23346.76112053  .00000221  00000-0  31975-4 0  9990,2 52269  53.2168 180.9392 0001488  95.8890 264.2272 15.08841451 92107,6917.876,95.437,540.77,538.712,0.0
52269.0,STARLINK-3791,PAYLOAD,2023-12-13 18:06:47,15.08840843,0.0001517,53.2167,176.4785,97.5268,262.5896,4.825e-05,4.8e-06,0.0,0 STARLINK-3791,1 52269U 22041J   23347.75471944  .00000480  00000-0  48250-4 0  9998,2 52269  53.2167 176.4785 0001517  97.5268 262.5896 15.08840843 91031,6917.878,95.438,540.792,538.693,0.0
52269.0,STARLINK-3791,PAYLOAD,2023-12-14 19:32:58,15.08838653,0.0001364,53.2161,171.7245,95.5458,264.569,4.809e-05,4.77e-06,0.0,0 STARLINK-3791,1 52269U 22041J   23348.81456227  .00000477  00000-0  48090-4 0  9991,2 52269  53.2161 171.7245 0001364  95.5458 264.5690 15.08838653 92416,6917.885,95.438,540.693,538.806,0.0
